GLOBALSTAR M001         
1 25162U 98008A   25285.23722969 -.00000047  00000+0  38069-3 0  9993
2 25162  52.0062 352.5384 0001841 136.4682 258.4660 12.38220227258215
GLOBALSTAR M004         
1 25163U 98008B   25284.86893941 -.00000090  00000+0  79935-4 0  9997
2 25163  52.0008  58.1785 0003326 175.6695 354.9138 12.63405164276438
GLOBALSTAR M002         
1 25164U 98008C   25285.28924614 -.00000049  00000+0  54754-3 0  9992
2 25164  52.0022 306.5924 0001432   5.6511 354.4325 11.61512439197677
GLOBALSTAR M003         
1 25165U 98008D   25285.24501749 -.00000178  00000+0 -94915-3 0  9996
2 25165  51.9935 204.3151 0007817 163.0772   3.4292 12.12055985247414
GLOBALSTAR M014         
1 25306U 98023A   25285.02435593 -.00000047  00000+0  56991-3 0  9995
2 25306  51.9826 228.0206 0000374 194.1295 245.9511 11.65482573204795
GLOBALSTAR M006         
1 25307U 98023B   25285.34980365 -.00000040  00000+0  73245-3 0  9997
2 25307  51.9933 284.0521 0003128 322.3162 175.0867 11.58176892230405
GLOBALSTAR M015         
1 25308U 98023C   25285.23425312 -.00000041  00000+0  73063-3 0  9991
2 25308  51.9853  28.1711 0011852 283.4030  89.1746 11.48859211207530
GLOBALSTAR M008         
1 25309U 98023D   25285.26642918 -.00000053  00000+0  33824-3 0  9992
2 25309  51.9961 218.6096 0003292  61.1763 104.3927 12.36073874252325
